[{"OBJECT_NAME":"STARLINK-31567","OBJECT_ID":"2024-045X","EPOCH":"2026-03-09T10:21:09.345024","MEAN_MOTION":15.27599181,"ECCENTRICITY":7.911e-5,"INCLINATION":43.0003,"RA_OF_ASC_NODE":93.8497,"ARG_OF_PERICENTER":244.6072,"MEAN_ANOMALY":115.4698,"EPHEMERIS_TYPE":0,"CLASSIFICATION_TYPE":"U","NORAD_CAT_ID":59199,"ELEMENT_SET_NO":999,"REV_AT_EPOCH":11312,"BSTAR":-0.00018394192,"MEAN_MOTION_DOT":-5.323e-5,"MEAN_MOTION_DDOT":0},{"OBJECT_NAME":"FLOCK 4G-17","OBJECT_ID":"2025-009CA","EPOCH":"2026-03-09T22:51:51.984864","MEAN_MOTION":15.27385439,"ECCENTRICITY":0.00036407,"INCLINATION":97.3966,"RA_OF_ASC_NODE":151.0229,"ARG_OF_PERICENTER":339.6132,"MEAN_ANOMALY":20.4962,"EPHEMERIS_TYPE":0,"CLASSIFICATION_TYPE":"U","NORAD_CAT_ID":62681,"ELEMENT_SET_NO":999,"REV_AT_EPOCH":12139,"BSTAR":0.00053710713,"MEAN_MOTION_DOT":0.00014342,"MEAN_MOTION_DDOT":0}]
